CCSDS_OMM_VERS = 2.0
CREATION_DATE  = 
ORIGINATOR     = 

OBJECT_NAME    = TRANSPORTER-15CL
OBJECT_ID      = 2025-276CL
CENTER_NAME    = EARTH
REF_FRAME      = TEME
TIME_SYSTEM    = UTC
MEAN_ELEMENT_THEORY = SGP/SGP4

EPOCH          = 2025-12-25T17:11:17.372256
MEAN_MOTION    = 15.18626372
ECCENTRICITY   = .0002142
INCLINATION    = 97.4399
RA_OF_ASC_NODE = 71.2812
ARG_OF_PERICENTER = 208.0823
MEAN_ANOMALY   = 152.0296

EPHEMERIS_TYPE = 0
CLASSIFICATION_TYPE = U
NORAD_CAT_ID   = 66748
ELEMENT_SET_NO = 999
REV_AT_EPOCH   = 409
BSTAR          = .61125E-3
MEAN_MOTION_DOT = .12599E-3
MEAN_MOTION_DDOT = 0

CCSDS_OMM_VERS = 2.0
CREATION_DATE  = 
ORIGINATOR     = 

OBJECT_NAME    = TRANSPORTER-15CM
OBJECT_ID      = 2025-276CM
CENTER_NAME    = EARTH
REF_FRAME      = TEME
TIME_SYSTEM    = UTC
MEAN_ELEMENT_THEORY = SGP/SGP4

EPOCH          = 2025-12-25T18:54:31.023648
MEAN_MOTION    = 15.17917049
ECCENTRICITY   = .0002137
INCLINATION    = 97.4394
RA_OF_ASC_NODE = 71.3356
ARG_OF_PERICENTER = 176.8771
MEAN_ANOMALY   = 183.2477

EPHEMERIS_TYPE = 0
CLASSIFICATION_TYPE = U
NORAD_CAT_ID   = 66749
ELEMENT_SET_NO = 999
REV_AT_EPOCH   = 410
BSTAR          = .51946E-3
MEAN_MOTION_DOT = .10477E-3
MEAN_MOTION_DDOT = 0

CCSDS_OMM_VERS = 2.0
CREATION_DATE  = 
ORIGINATOR     = 

OBJECT_NAME    = TRANSPORTER-15CN
OBJECT_ID      = 2025-276CN
CENTER_NAME    = EARTH
REF_FRAME      = TEME
TIME_SYSTEM    = UTC
MEAN_ELEMENT_THEORY = SGP/SGP4

EPOCH          = 2025-12-25T18:49:37.710336
MEAN_MOTION    = 15.18066952
ECCENTRICITY   = .0002327
INCLINATION    = 97.4435
RA_OF_ASC_NODE = 71.3560
ARG_OF_PERICENTER = 144.3162
MEAN_ANOMALY   = 215.8228

EPHEMERIS_TYPE = 0
CLASSIFICATION_TYPE = U
NORAD_CAT_ID   = 66750
ELEMENT_SET_NO = 999
REV_AT_EPOCH   = 410
BSTAR          = .49372E-3
MEAN_MOTION_DOT = .9997E-4
MEAN_MOTION_DDOT = 0

CCSDS_OMM_VERS = 2.0
CREATION_DATE  = 
ORIGINATOR     = 

OBJECT_NAME    = ICEYE-X58
OBJECT_ID      = 2025-276CP
CENTER_NAME    = EARTH
REF_FRAME      = TEME
TIME_SYSTEM    = UTC
MEAN_ELEMENT_THEORY = SGP/SGP4

EPOCH          = 2025-12-25T18:55:13.401120
MEAN_MOTION    = 15.17827118
ECCENTRICITY   = .00026
INCLINATION    = 97.4407
RA_OF_ASC_NODE = 71.3434
ARG_OF_PERICENTER = 192.8874
MEAN_ANOMALY   = 167.2294

EPHEMERIS_TYPE = 0
CLASSIFICATION_TYPE = U
NORAD_CAT_ID   = 66751
ELEMENT_SET_NO = 999
REV_AT_EPOCH   = 410
BSTAR          = .2602E-3
MEAN_MOTION_DOT = .5198E-4
MEAN_MOTION_DDOT = 0

CCSDS_OMM_VERS = 2.0
CREATION_DATE  = 
ORIGINATOR     = 

OBJECT_NAME    = ICEYE-X59
OBJECT_ID      = 2025-276CQ
CENTER_NAME    = EARTH
REF_FRAME      = TEME
TIME_SYSTEM    = UTC
MEAN_ELEMENT_THEORY = SGP/SGP4

EPOCH          = 2025-12-25T19:00:09.023904
MEAN_MOTION    = 15.17633794
ECCENTRICITY   = .0001984
INCLINATION    = 97.4401
RA_OF_ASC_NODE = 71.3384
ARG_OF_PERICENTER = 220.0209
MEAN_ANOMALY   = 140.0878

EPHEMERIS_TYPE = 0
CLASSIFICATION_TYPE = U
NORAD_CAT_ID   = 66752
ELEMENT_SET_NO = 999
REV_AT_EPOCH   = 410
BSTAR          = .4373E-3
MEAN_MOTION_DOT = .8736E-4
MEAN_MOTION_DDOT = 0

CCSDS_OMM_VERS = 2.0
CREATION_DATE  = 
ORIGINATOR     = 

OBJECT_NAME    = ICEYE-X60
OBJECT_ID      = 2025-276CR
CENTER_NAME    = EARTH
REF_FRAME      = TEME
TIME_SYSTEM    = UTC
MEAN_ELEMENT_THEORY = SGP/SGP4

EPOCH          = 2025-12-25T19:06:10.234656
MEAN_MOTION    = 15.17414802
ECCENTRICITY   = .0001136
INCLINATION    = 97.4402
RA_OF_ASC_NODE = 71.3288
ARG_OF_PERICENTER = 252.0219
MEAN_ANOMALY   = 108.0891

EPHEMERIS_TYPE = 0
CLASSIFICATION_TYPE = U
NORAD_CAT_ID   = 66753
ELEMENT_SET_NO = 999
REV_AT_EPOCH   = 410
BSTAR          = .46756E-3
MEAN_MOTION_DOT = .9287E-4
MEAN_MOTION_DDOT = 0

CCSDS_OMM_VERS = 2.0
CREATION_DATE  = 
ORIGINATOR     = 

OBJECT_NAME    = ICEYE-X61
OBJECT_ID      = 2025-276CS
CENTER_NAME    = EARTH
REF_FRAME      = TEME
TIME_SYSTEM    = UTC
MEAN_ELEMENT_THEORY = SGP/SGP4

EPOCH          = 2025-12-25T18:53:50.938368
MEAN_MOTION    = 15.17878004
ECCENTRICITY   = .0002505
INCLINATION    = 97.4399
RA_OF_ASC_NODE = 71.3392
ARG_OF_PERICENTER = 181.9270
MEAN_ANOMALY   = 178.1955

EPHEMERIS_TYPE = 0
CLASSIFICATION_TYPE = U
NORAD_CAT_ID   = 66754
ELEMENT_SET_NO = 999
REV_AT_EPOCH   = 410
BSTAR          = .44634E-3
MEAN_MOTION_DOT = .8981E-4
MEAN_MOTION_DDOT = 0

CCSDS_OMM_VERS = 2.0
CREATION_DATE  = 
ORIGINATOR     = 

OBJECT_NAME    = ICEYE-X62
OBJECT_ID      = 2025-276CT
CENTER_NAME    = EARTH
REF_FRAME      = TEME
TIME_SYSTEM    = UTC
MEAN_ELEMENT_THEORY = SGP/SGP4

EPOCH          = 2025-12-25T20:00:01.999008
MEAN_MOTION    = 15.17681972
ECCENTRICITY   = .0001212
INCLINATION    = 97.4404
RA_OF_ASC_NODE = 71.3735
ARG_OF_PERICENTER = 201.9881
MEAN_ANOMALY   = 23.8391

EPHEMERIS_TYPE = 0
CLASSIFICATION_TYPE = U
NORAD_CAT_ID   = 66755
ELEMENT_SET_NO = 999
REV_AT_EPOCH   = 511
BSTAR          = -.25546E-2
MEAN_MOTION_DOT = -.51135E-3
MEAN_MOTION_DDOT = 0

CCSDS_OMM_VERS = 2.0
CREATION_DATE  = 
ORIGINATOR     = 

OBJECT_NAME    = TRANSPORTER-15CU
OBJECT_ID      = 2025-276CU
CENTER_NAME    = EARTH
REF_FRAME      = TEME
TIME_SYSTEM    = UTC
MEAN_ELEMENT_THEORY = SGP/SGP4

EPOCH          = 2025-12-25T15:42:11.460384
MEAN_MOTION    = 15.17975342
ECCENTRICITY   = .0001784
INCLINATION    = 97.4407
RA_OF_ASC_NODE = 71.2154
ARG_OF_PERICENTER = 150.8594
MEAN_ANOMALY   = 209.2740

EPHEMERIS_TYPE = 0
CLASSIFICATION_TYPE = U
NORAD_CAT_ID   = 66756
ELEMENT_SET_NO = 999
REV_AT_EPOCH   = 408
BSTAR          = .32149E-3
MEAN_MOTION_DOT = .6466E-4
MEAN_MOTION_DDOT = 0

CCSDS_OMM_VERS = 2.0
CREATION_DATE  = 
ORIGINATOR     = 

OBJECT_NAME    = TRANSPORTER-15CV
OBJECT_ID      = 2025-276CV
CENTER_NAME    = EARTH
REF_FRAME      = TEME
TIME_SYSTEM    = UTC
MEAN_ELEMENT_THEORY = SGP/SGP4

EPOCH          = 2025-12-25T14:04:56.087328
MEAN_MOTION    = 15.18206679
ECCENTRICITY   = .0001768
INCLINATION    = 97.4414
RA_OF_ASC_NODE = 71.1557
ARG_OF_PERICENTER = 131.9957
MEAN_ANOMALY   = 228.1428

EPHEMERIS_TYPE = 0
CLASSIFICATION_TYPE = U
NORAD_CAT_ID   = 66757
ELEMENT_SET_NO = 999
REV_AT_EPOCH   = 407
BSTAR          = .46236E-2
MEAN_MOTION_DOT = .9567E-3
MEAN_MOTION_DDOT = 0

CCSDS_OMM_VERS = 2.0
CREATION_DATE  = 
ORIGINATOR     = 

OBJECT_NAME    = TRANSPORTER-15CW
OBJECT_ID      = 2025-276CW
CENTER_NAME    = EARTH
REF_FRAME      = TEME
TIME_SYSTEM    = UTC
MEAN_ELEMENT_THEORY = SGP/SGP4

EPOCH          = 2025-12-25T18:49:16.576896
MEAN_MOTION    = 15.18113988
ECCENTRICITY   = .0001491
INCLINATION    = 97.4386
RA_OF_ASC_NODE = 71.3401
ARG_OF_PERICENTER = 133.8806
MEAN_ANOMALY   = 226.2551

EPHEMERIS_TYPE = 0
CLASSIFICATION_TYPE = U
NORAD_CAT_ID   = 66758
ELEMENT_SET_NO = 999
REV_AT_EPOCH   = 410
BSTAR          = .48646E-3
MEAN_MOTION_DOT = .9862E-4
MEAN_MOTION_DDOT = 0

CCSDS_OMM_VERS = 2.0
CREATION_DATE  = 
ORIGINATOR     = 

OBJECT_NAME    = TRANSPORTER-15CX
OBJECT_ID      = 2025-276CX
CENTER_NAME    = EARTH
REF_FRAME      = TEME
TIME_SYSTEM    = UTC
MEAN_ELEMENT_THEORY = SGP/SGP4

EPOCH          = 2025-12-25T18:46:32.352096
MEAN_MOTION    = 15.18333524
ECCENTRICITY   = .0003411
INCLINATION    = 97.4400
RA_OF_ASC_NODE = 71.3435
ARG_OF_PERICENTER = 154.8576
MEAN_ANOMALY   = 205.2825

EPHEMERIS_TYPE = 0
CLASSIFICATION_TYPE = U
NORAD_CAT_ID   = 66759
ELEMENT_SET_NO = 999
REV_AT_EPOCH   = 410
BSTAR          = .45873E-2
MEAN_MOTION_DOT = .95267E-3
MEAN_MOTION_DDOT = 0

