TRANSPORTER-15CL        
1 66748U 25276CL  25359.71617329  .00012599  00000+0  61125-3 0  9996
2 66748  97.4399  71.2812 0002142 208.0823 152.0296 15.18626372  4096
TRANSPORTER-15CM        
1 66749U 25276CM  25359.78785907  .00010477  00000+0  51946-3 0  9995
2 66749  97.4394  71.3356 0002137 176.8771 183.2477 15.17917049  4106
TRANSPORTER-15CN        
1 66750U 25276CN  25359.78446424  .00009997  00000+0  49372-3 0  9990
2 66750  97.4435  71.3560 0002327 144.3162 215.8228 15.18066952  4101
ICEYE-X58               
1 66751U 25276CP  25359.78834955  .00005198  00000+0  26020-3 0  9995
2 66751  97.4407  71.3434 0002600 192.8874 167.2294 15.17827118  4104
ICEYE-X59               
1 66752U 25276CQ  25359.79177111  .00008736  00000+0  43730-3 0  9999
2 66752  97.4401  71.3384 0001984 220.0209 140.0878 15.17633794  4105
ICEYE-X60               
1 66753U 25276CR  25359.79595179  .00009287  00000+0  46756-3 0  9991
2 66753  97.4402  71.3288 0001136 252.0219 108.0891 15.17414802  4101
ICEYE-X61               
1 66754U 25276CS  25359.78739512  .00008981  00000+0  44634-3 0  9995
2 66754  97.4399  71.3392 0002505 181.9270 178.1955 15.17878004  4108
ICEYE-X62               
1 66755U 25276CT  25359.83335647 -.00051135  00000+0 -25546-2 0  9994
2 66755  97.4404  71.3735 0001212 201.9881  23.8391 15.17681972  5110
TRANSPORTER-15CU        
1 66756U 25276CU  25359.65429931  .00006466  00000+0  32149-3 0  9998
2 66756  97.4407  71.2154 0001784 150.8594 209.2740 15.17975342  4085
TRANSPORTER-15CV        
1 66757U 25276CV  25359.58676027  .00095670  00000+0  46236-2 0  9997
2 66757  97.4414  71.1557 0001768 131.9957 228.1428 15.18206679  4078
TRANSPORTER-15CW        
1 66758U 25276CW  25359.78421964  .00009862  00000+0  48646-3 0  9994
2 66758  97.4386  71.3401 0001491 133.8806 226.2551 15.18113988  4104
TRANSPORTER-15CX        
1 66759U 25276CX  25359.78231889  .00095267  00000+0  45873-2 0  9992
2 66759  97.4400  71.3435 0003411 154.8576 205.2825 15.18333524  4101
